KUIPER-00027            
1 63740U 25088S   25223.25002315 -.00938773  00000+0 -34800-1 0  9999
2 63740  51.8768 314.0034 0001510 119.1885 181.9046 15.29610137  5898
KUIPER-00028            
1 63741U 25088T   25223.25002315 -.00781771  00000+0 -26193-1 0  9990
2 63741  51.8742 313.6470 0002052  84.5059   6.6078 15.32783329  5896
KUIPER-00029            
1 63742U 25088U   25223.22429496  .00016245  00000+0  44321-3 0  9991
2 63742  51.8692 314.4020 0004543 117.0220 243.1231 15.37575110 16275
KUIPER-00030            
1 63743U 25088V   25223.25002315 -.00542781  00000+0 -49920-1 0  9991
2 63743  51.8983 321.6212 0014798 102.4112 101.5060 14.96780320  4878
KUIPER-00031            
1 63744U 25088W   25223.25002315  .00032674  00000+0  12661-2 0  9998
2 63744  51.8739 314.3649 0004098 112.9938  14.7268 15.25854624  5941
KUIPER-00032            
1 63745U 25088X   25223.28054580  .00014297  00000+0  51199-3 0  9994
2 63745  51.8723 314.7473 0004964  87.7448 272.4104 15.28989973 17271
KUIPER-00033            
1 63746U 25088Y   25223.27098893  .00005182  00000+0  70792-3 0  9992
2 63746  51.9009 337.0637 0002914 186.7945 173.2978 14.79955037 16449
KUIPER-00034            
1 63747U 25088Z   25223.23149013  .00017317  00000+0  46011-3 0  9990
2 63747  51.8724 313.7287 0001445  99.9152 260.1998 15.38351548 16449
